STARLINK-37604          
1 69203U 26114X   26155.16670139 -.01715760  00000+0 -77094-2 0  9993
2 69203  53.1575 267.3522 0000746  77.4904 313.6462 15.86391707  2715
STARLINK-37669          
1 69204U 26114Y   26155.16670139 -.01717700  00000+0 -76735-2 0  9991
2 69204  53.1574 267.3444 0000765  77.1910 317.6221 15.86511936  2718
STARLINK-37691          
1 69205U 26114Z   26155.16670139 -.01728982  00000+0 -75887-2 0  9993
2 69205  53.1574 267.3218 0000691  76.5755 329.1041 15.86889366  2719
STARLINK-37671          
1 69206U 26114AA  26155.16670139 -.01728257  00000+0 -76302-2 0  9992
2 69206  53.1575 267.3293 0000740  73.9565 328.0935 15.86769439  2717
STARLINK-37647          
1 69207U 26114AB  26155.16670139 -.01725959  00000+0 -76731-2 0  9995
2 69207  53.1574 267.3365 0000870  79.4426 319.1121 15.86623779  2712
STARLINK-37562          
1 69208U 26114AC  26155.16670139 -.01681277  00000+0 -73198-2 0  9994
2 69208  53.1574 267.3141 0000723  70.4661 338.8705 15.86963005  2719
STARLINK-37682          
1 69209U 26114AD  26155.16670139 -.01727865  00000+0 -74889-2 0  9997
2 69209  53.1574 267.3065 0000891  73.2485 339.6070 15.87137194  2713
STARLINK-37402          
1 69210U 26114AE  26155.16670139 -.01730166  00000+0 -74477-2 0  9990
2 69210  53.1570 267.2996 0000704  71.3866 344.8901 15.87280914  2718
STARLINK-37613          
1 69211U 26115A   26155.16670139 -.00118569  00000+0 -62500-3 0  9993
2 69211  97.2830 171.8982 0000914 101.3941 104.2567 15.80876308  2608
STARLINK-37713          
1 69212U 26115B   26155.16670139 -.00138102  00000+0 -72930-3 0  9997
2 69212  97.2827 171.8990 0001485  99.5939 107.7179 15.80886676  2609
STARLINK-37716          
1 69213U 26115C   26155.16670139 -.00129661  00000+0 -68425-3 0  9992
2 69213  97.2830 171.8974 0001286 102.9726 100.0614 15.80880104  2608
STARLINK-37620          
1 69214U 26115D   26155.16670139 -.00134935  00000+0 -71248-3 0  9990
2 69214  97.2828 171.9007 0001036 115.5812  95.9966 15.80882741  2604
STARLINK-37700          
1 69215U 26115E   26155.16670139 -.02547717  00000+0 -16483-1 0  9997
2 69215  97.2835 171.9028 0001781  89.1717 126.0338 15.79543301  2606
STARLINK-37766          
1 69216U 26115F   26155.16670139 -.00094131  00000+0 -49473-3 0  9990
2 69216  97.2825 171.9044 0001494  98.5037 121.6222 15.80871023  2604
STARLINK-37763          
1 69217U 26115G   26155.16670139 -.00096434  00000+0 -50703-3 0  9997
2 69217  97.2822 171.9057 0000964 104.1696 119.5629 15.80870918  2601
STARLINK-37724          
1 69218U 26115H   26155.16670139 -.00093438  00000+0 -49123-3 0  9993
2 69218  97.2828 171.9079 0001244  93.5985 134.9031 15.80863371  2609
STARLINK-37758          
1 69219U 26115J   26155.16670139 -.00066727  00000+0 -34976-3 0  9995
2 69219  97.2822 171.9163 0000792  78.7528 168.0110 15.80850197  2601
STARLINK-37201          
1 69220U 26115K   26155.16670139 -.00027630  00000+0 -14377-3 0  9990
2 69220  97.2831 171.9135 0001249 102.2624 137.4610 15.80845416  2603
STARLINK-37728          
1 69221U 26115L   26155.16670139 -.00096408  00000+0 -50657-3 0  9991
2 69221  97.2824 171.9192 0001489  88.2537 165.1941 15.80883297  2605
STARLINK-37760          
1 69222U 26115M   26155.16670139 -.00097701  00000+0 -51363-3 0  9994
2 69222  97.2829 171.9123 0001291  93.1888 144.6816 15.80876026  2605
STARLINK-37759          
1 69223U 26115N   26155.16670139 -.00097277  00000+0 -51165-3 0  9993
2 69223  97.2822 171.9207 0000750  76.1545 181.4167 15.80865529  2606
STARLINK-37725          
1 69224U 26115P   26155.16670139 -.00099412  00000+0 -52251-3 0  9994
2 69224  97.2827 171.9196 0000603  77.3505 176.9634 15.80887357  2606
STARLINK-37770          
1 69225U 26115Q   26155.16670139 -.00047713  00000+0 -24936-3 0  9991
2 69225  97.2829 171.9176 0001116  93.4072 157.4915 15.80847044  2600
STARLINK-37736          
1 69226U 26115R   26155.16670139 -.00100041  00000+0 -52630-3 0  9998
2 69226  97.2830 171.9195 0000515 101.1370 153.8130 15.80869124  2606
STARLINK-37737          
1 69227U 26115S   26155.16670139  .00017515  00000+0  92010-4 0  9997
2 69227  97.2825 171.9243 0001146  89.3759 176.9384 15.80813359  2622
STARLINK-37618          
1 69228U 26115T   26155.16670139 -.00459068  00000+0 -24893-2 0  9995
2 69228  97.2824 171.9339 0001444  70.9677 215.9820 15.81116200  2603
STARLINK-37679          
1 69229U 26115U   26155.16670139 -.00229368  00000+0 -12213-2 0  9997
2 69229  97.2820 171.9294 0001359  99.9819 178.6530 15.80942829  2600
STARLINK-37746          
1 69230U 26115V   26155.16670139 -.00040661  00000+0 -21226-3 0  9991
2 69230  97.2824 171.9258 0000785  83.7567 186.1787 15.80844108  2608
STARLINK-37557          
1 69231U 26115W   26155.16670139 -.00439189  00000+0 -23769-2 0  9992
2 69231  97.2827 171.9347 0001367  68.0276 219.9885 15.81110288  2601
STARLINK-37745          
1 69232U 26115X   26155.16670139 -.02425444  00000+0 -13030-1 0  9993
2 69232  97.2824 171.9439 0001389 116.1935 192.7727 15.83347113  2606
