OBJECT_NAME,OBJECT_ID,EPOCH,MEAN_MOTION,ECCENTRICITY,INCLINATION,RA_OF_ASC_NODE,ARG_OF_PERICENTER,MEAN_ANOMALY,EPHEMERIS_TYPE,CLASSIFICATION_TYPE,NORAD_CAT_ID,ELEMENT_SET_NO,REV_AT_EPOCH,BSTAR,MEAN_MOTION_DOT,MEAN_MOTION_DDOT
STARLINK-37604,2026-114X,2026-06-04T04:00:03.000096,15.86391707,.0000746,53.1575,267.3522,77.4904,313.6462,0,U,69203,999,271,-.77094E-2,-.171576E-1,0
STARLINK-37669,2026-114Y,2026-06-04T04:00:03.000096,15.86511936,.0000765,53.1574,267.3444,77.1910,317.6221,0,U,69204,999,271,-.76735E-2,-.17177E-1,0
STARLINK-37691,2026-114Z,2026-06-04T04:00:03.000096,15.86889366,.0000691,53.1574,267.3218,76.5755,329.1041,0,U,69205,999,271,-.75887E-2,-.1728982E-1,0
STARLINK-37671,2026-114AA,2026-06-04T04:00:03.000096,15.86769439,.000074,53.1575,267.3293,73.9565,328.0935,0,U,69206,999,271,-.76302E-2,-.1728257E-1,0
STARLINK-37647,2026-114AB,2026-06-04T04:00:03.000096,15.86623779,.000087,53.1574,267.3365,79.4426,319.1121,0,U,69207,999,271,-.76731E-2,-.1725959E-1,0
STARLINK-37562,2026-114AC,2026-06-04T04:00:03.000096,15.86963005,.0000723,53.1574,267.3141,70.4661,338.8705,0,U,69208,999,271,-.73198E-2,-.1681277E-1,0
STARLINK-37682,2026-114AD,2026-06-04T04:00:03.000096,15.87137194,.0000891,53.1574,267.3065,73.2485,339.6070,0,U,69209,999,271,-.74889E-2,-.1727865E-1,0
STARLINK-37402,2026-114AE,2026-06-04T04:00:03.000096,15.87280914,.0000704,53.1570,267.2996,71.3866,344.8901,0,U,69210,999,271,-.74477E-2,-.1730166E-1,0
STARLINK-37613,2026-115A,2026-06-04T04:00:03.000096,15.80876308,.0000914,97.2830,171.8982,101.3941,104.2567,0,U,69211,999,260,-.625E-3,-.118569E-2,0
STARLINK-37713,2026-115B,2026-06-04T04:00:03.000096,15.80886676,.0001485,97.2827,171.8990,99.5939,107.7179,0,U,69212,999,260,-.7293E-3,-.138102E-2,0
STARLINK-37716,2026-115C,2026-06-04T04:00:03.000096,15.80880104,.0001286,97.2830,171.8974,102.9726,100.0614,0,U,69213,999,260,-.68425E-3,-.129661E-2,0
STARLINK-37620,2026-115D,2026-06-04T04:00:03.000096,15.80882741,.0001036,97.2828,171.9007,115.5812,95.9966,0,U,69214,999,260,-.71248E-3,-.134935E-2,0
STARLINK-37700,2026-115E,2026-06-04T04:00:03.000096,15.79543301,.0001781,97.2835,171.9028,89.1717,126.0338,0,U,69215,999,260,-.16483E-1,-.2547717E-1,0
STARLINK-37766,2026-115F,2026-06-04T04:00:03.000096,15.80871023,.0001494,97.2825,171.9044,98.5037,121.6222,0,U,69216,999,260,-.49473E-3,-.94131E-3,0
STARLINK-37763,2026-115G,2026-06-04T04:00:03.000096,15.80870918,.0000964,97.2822,171.9057,104.1696,119.5629,0,U,69217,999,260,-.50703E-3,-.96434E-3,0
STARLINK-37724,2026-115H,2026-06-04T04:00:03.000096,15.80863371,.0001244,97.2828,171.9079,93.5985,134.9031,0,U,69218,999,260,-.49123E-3,-.93438E-3,0
STARLINK-37758,2026-115J,2026-06-04T04:00:03.000096,15.80850197,.0000792,97.2822,171.9163,78.7528,168.0110,0,U,69219,999,260,-.34976E-3,-.66727E-3,0
STARLINK-37201,2026-115K,2026-06-04T04:00:03.000096,15.80845416,.0001249,97.2831,171.9135,102.2624,137.4610,0,U,69220,999,260,-.14377E-3,-.2763E-3,0
STARLINK-37728,2026-115L,2026-06-04T04:00:03.000096,15.80883297,.0001489,97.2824,171.9192,88.2537,165.1941,0,U,69221,999,260,-.50657E-3,-.96408E-3,0
STARLINK-37760,2026-115M,2026-06-04T04:00:03.000096,15.80876026,.0001291,97.2829,171.9123,93.1888,144.6816,0,U,69222,999,260,-.51363E-3,-.97701E-3,0
STARLINK-37759,2026-115N,2026-06-04T04:00:03.000096,15.80865529,.000075,97.2822,171.9207,76.1545,181.4167,0,U,69223,999,260,-.51165E-3,-.97277E-3,0
STARLINK-37725,2026-115P,2026-06-04T04:00:03.000096,15.80887357,.0000603,97.2827,171.9196,77.3505,176.9634,0,U,69224,999,260,-.52251E-3,-.99412E-3,0
STARLINK-37770,2026-115Q,2026-06-04T04:00:03.000096,15.80847044,.0001116,97.2829,171.9176,93.4072,157.4915,0,U,69225,999,260,-.24936E-3,-.47713E-3,0
STARLINK-37736,2026-115R,2026-06-04T04:00:03.000096,15.80869124,.0000515,97.2830,171.9195,101.1370,153.8130,0,U,69226,999,260,-.5263E-3,-.100041E-2,0
STARLINK-37737,2026-115S,2026-06-04T04:00:03.000096,15.80813359,.0001146,97.2825,171.9243,89.3759,176.9384,0,U,69227,999,262,.9201E-4,.17515E-3,0
STARLINK-37618,2026-115T,2026-06-04T04:00:03.000096,15.81116200,.0001444,97.2824,171.9339,70.9677,215.9820,0,U,69228,999,260,-.24893E-2,-.459068E-2,0
STARLINK-37679,2026-115U,2026-06-04T04:00:03.000096,15.80942829,.0001359,97.2820,171.9294,99.9819,178.6530,0,U,69229,999,260,-.12213E-2,-.229368E-2,0
STARLINK-37746,2026-115V,2026-06-04T04:00:03.000096,15.80844108,.0000785,97.2824,171.9258,83.7567,186.1787,0,U,69230,999,260,-.21226E-3,-.40661E-3,0
STARLINK-37557,2026-115W,2026-06-04T04:00:03.000096,15.81110288,.0001367,97.2827,171.9347,68.0276,219.9885,0,U,69231,999,260,-.23769E-2,-.439189E-2,0
STARLINK-37745,2026-115X,2026-06-04T04:00:03.000096,15.83347113,.0001389,97.2824,171.9439,116.1935,192.7727,0,U,69232,999,260,-.1303E-1,-.2425444E-1,0
